{
  "type": "FeatureCollection",
  "features": [
    {
      "type": "Feature",
      "properties": {
        "norad_id": 30282,
        "name": "FENGYUN 1C DEB",
        "group": "fengyun-1c-debris",
        "lat": -67.98065686792324,
        "lon": 10.326533672832356,
        "alt_km": 816.1998274686648,
        "timestamp": "2025-12-11T07:02:24.005443+00:00",
        "meta_object_name": "FENGYUN 1C DEB",
        "meta_object_id": "1999-025YT",
        "meta_epoch": "2025-12-10T18:37:10.731360",
        "meta_mean_motion": 14.12968965,
        "meta_eccentricity": 0.02104412,
        "meta_inclination": 98.5016,
        "meta_ra_of_asc_node": 348.1283,
        "meta_arg_of_pericenter": 7.7323,
        "meta_mean_anomaly": 174.0734,
        "meta_ephemeris_type": 0,
        "meta_classification_type": "U",
        "meta_norad_cat_id": 30282,
        "meta_element_set_no": 999,
        "meta_rev_at_epoch": 97323,
        "meta_bstar": 0.00055980336,
        "meta_mean_motion_dot": 1.245e-05,
        "meta_mean_motion_ddot": 0,
        "tle_line1": "1 30282U 99025YT  25344.77581865  .00001245  00000+0  55980-3 0  9996",
        "tle_line2": "2 30282  98.5016 348.1283 0210441   7.7323 174.0734 14.12968965973230"
      },
      "geometry": {
        "type": "Point",
        "coordinates": [
          10.326533672832356,
          -67.98065686792324
        ]
      }
    },
    {
      "type": "Feature",
      "properties": {
        "norad_id": 30283,
        "name": "FENGYUN 1C DEB",
        "group": "fengyun-1c-debris",
        "lat": -77.6728664734534,
        "lon": 24.607312296701938,
        "alt_km": 976.8367244977517,
        "timestamp": "2025-12-11T07:02:24.005453+00:00",
        "meta_object_name": "FENGYUN 1C DEB",
        "meta_object_id": "1999-025YU",
        "meta_epoch": "2025-12-10T11:34:36.431040",
        "meta_mean_motion": 14.0197408,
        "meta_eccentricity": 0.01851231,
        "meta_inclination": 98.8672,
        "meta_ra_of_asc_node": 338.2286,
        "meta_arg_of_pericenter": 49.5618,
        "meta_mean_anomaly": 99.9391,
        "meta_ephemeris_type": 0,
        "meta_classification_type": "U",
        "meta_norad_cat_id": 30283,
        "meta_element_set_no": 999,
        "meta_rev_at_epoch": 96659,
        "meta_bstar": 0.00011858506,
        "meta_mean_motion_dot": 1.68e-06,
        "meta_mean_motion_ddot": 0,
        "tle_line1": "1 30283U 99025YU  25344.48236610  .00000168  00000+0  11859-3 0  9990",
        "tle_line2": "2 30283  98.8672 338.2286 0185123  49.5618  99.9391 14.01974080966592"
      },
      "geometry": {
        "type": "Point",
        "coordinates": [
          24.607312296701938,
          -77.6728664734534
        ]
      }
    },
    {
      "type": "Feature",
      "properties": {
        "norad_id": 30284,
        "name": "FENGYUN 1C DEB",
        "group": "fengyun-1c-debris",
        "lat": 0.9904307987061451,
        "lon": 53.582266890315296,
        "alt_km": 808.7476851362408,
        "timestamp": "2025-12-11T07:02:24.005464+00:00",
        "meta_object_name": "FENGYUN 1C DEB",
        "meta_object_id": "1999-025YV",
        "meta_epoch": "2025-12-10T16:36:45.260928",
        "meta_mean_motion": 14.28738706,
        "meta_eccentricity": 0.00378649,
        "meta_inclination": 98.72,
        "meta_ra_of_asc_node": 53.1335,
        "meta_arg_of_pericenter": 114.7291,
        "meta_mean_anomaly": 36.5886,
        "meta_ephemeris_type": 0,
        "meta_classification_type": "U",
        "meta_norad_cat_id": 30284,
        "meta_element_set_no": 999,
        "meta_rev_at_epoch": 97486,
        "meta_bstar": 0.0022281475,
        "meta_mean_motion_dot": 5.611e-05,
        "meta_mean_motion_ddot": 0,
        "tle_line1": "1 30284U 99025YV  25344.69219052  .00005611  00000+0  22281-2 0  9993",
        "tle_line2": "2 30284  98.7200  53.1335 0037864 114.7291  36.5886 14.28738706974864"
      },
      "geometry": {
        "type": "Point",
        "coordinates": [
          53.582266890315296,
          0.9904307987061451
        ]
      }
    },
    {
      "type": "Feature",
      "properties": {
        "norad_id": 30286,
        "name": "FENGYUN 1C DEB",
        "group": "fengyun-1c-debris",
        "lat": 24.189713355828324,
        "lon": 173.63799880511885,
        "alt_km": 805.076735112827,
        "timestamp": "2025-12-11T07:02:24.005475+00:00",
        "meta_object_name": "FENGYUN 1C DEB",
        "meta_object_id": "1999-025YX",
        "meta_epoch": "2025-12-10T12:12:48.157344",
        "meta_mean_motion": 14.12722175,
        "meta_eccentricity": 0.0064635,
        "meta_inclination": 98.6901,
        "meta_ra_of_asc_node": 348.9375,
        "meta_arg_of_pericenter": 139.0569,
        "meta_mean_anomaly": 348.8313,
        "meta_ephemeris_type": 0,
        "meta_classification_type": "U",
        "meta_norad_cat_id": 30286,
        "meta_element_set_no": 999,
        "meta_rev_at_epoch": 97427,
        "meta_bstar": 0.00012132939,
        "meta_mean_motion_dot": 1.87e-06,
        "meta_mean_motion_ddot": 0,
        "tle_line1": "1 30286U 99025YX  25344.50889071  .00000187  00000+0  12133-3 0  9998",
        "tle_line2": "2 30286  98.6901 348.9375 0064635 139.0569 348.8313 14.12722175974271"
      },
      "geometry": {
        "type": "Point",
        "coordinates": [
          173.63799880511885,
          24.189713355828324
        ]
      }
    },
    {
      "type": "Feature",
      "properties": {
        "norad_id": 30287,
        "name": "FENGYUN 1C DEB",
        "group": "fengyun-1c-debris",
        "lat": -55.376461470014,
        "lon": -173.06176886172028,
        "alt_km": 1239.764946000284,
        "timestamp": "2025-12-11T07:02:24.005485+00:00",
        "meta_object_name": "FENGYUN 1C DEB",
        "meta_object_id": "1999-025YY",
        "meta_epoch": "2025-12-10T08:53:30.316992",
        "meta_mean_motion": 13.68578233,
        "meta_eccentricity": 0.04134662,
        "meta_inclination": 98.6377,
        "meta_ra_of_asc_node": 18.8265,
        "meta_arg_of_pericenter": 18.6197,
        "meta_mean_anomaly": 356.4842,
        "meta_ephemeris_type": 0,
        "meta_classification_type": "U",
        "meta_norad_cat_id": 30287,
        "meta_element_set_no": 999,
        "meta_rev_at_epoch": 93826,
        "meta_bstar": 0.001433854,
        "meta_mean_motion_dot": 2.202e-05,
        "meta_mean_motion_ddot": 0,
        "tle_line1": "1 30287U 99025YY  25344.37048978  .00002202  00000+0  14339-2 0  9996",
        "tle_line2": "2 30287  98.6377  18.8265 0413466  18.6197 356.4842 13.68578233938264"
      },
      "geometry": {
        "type": "Point",
        "coordinates": [
          -173.06176886172028,
          -55.376461470014
        ]
      }
    },
    {
      "type": "Feature",
      "properties": {
        "norad_id": 30288,
        "name": "FENGYUN 1C DEB",
        "group": "fengyun-1c-debris",
        "lat": -6.246584555138265,
        "lon": -114.21568816083611,
        "alt_km": 798.105081110295,
        "timestamp": "2025-12-11T07:02:24.005496+00:00",
        "meta_object_name": "FENGYUN 1C DEB",
        "meta_object_id": "1999-025YZ",
        "meta_epoch": "2025-12-10T17:28:00.643008",
        "meta_mean_motion": 14.32551477,
        "meta_eccentricity": 0.00204513,
        "meta_inclination": 99.3945,
        "meta_ra_of_asc_node": 66.2103,
        "meta_arg_of_pericenter": 327.9781,
        "meta_mean_anomaly": 183.3685,
        "meta_ephemeris_type": 0,
        "meta_classification_type": "U",
        "meta_norad_cat_id": 30288,
        "meta_element_set_no": 999,
        "meta_rev_at_epoch": 97540,
        "meta_bstar": 0.0027015033,
        "meta_mean_motion_dot": 7.302e-05,
        "meta_mean_motion_ddot": 0,
        "tle_line1": "1 30288U 99025YZ  25344.72778522  .00007302  00000+0  27015-2 0  9992",
        "tle_line2": "2 30288  99.3945  66.2103 0020451 327.9781 183.3685 14.32551477975407"
      },
      "geometry": {
        "type": "Point",
        "coordinates": [
          -114.21568816083611,
          -6.246584555138265
        ]
      }
    },
    {
      "type": "Feature",
      "properties": {
        "norad_id": 30289,
        "name": "FENGYUN 1C DEB",
        "group": "fengyun-1c-debris",
        "lat": -8.415731457509144,
        "lon": 83.0880689333589,
        "alt_km": 784.2053283604109,
        "timestamp": "2025-12-11T07:02:24.005506+00:00",
        "meta_object_name": "FENGYUN 1C DEB",
        "meta_object_id": "1999-025ZA",
        "meta_epoch": "2025-12-10T18:18:53.662176",
        "meta_mean_motion": 14.25794794,
        "meta_eccentricity": 0.00371614,
        "meta_inclination": 98.9265,
        "meta_ra_of_asc_node": 81.2159,
        "meta_arg_of_pericenter": 336.0842,
        "meta_mean_anomaly": 175.4086,
        "meta_ephemeris_type": 0,
        "meta_classification_type": "U",
        "meta_norad_cat_id": 30289,
        "meta_element_set_no": 999,
        "meta_rev_at_epoch": 97053,
        "meta_bstar": 0.002983057,
        "meta_mean_motion_dot": 7.102e-05,
        "meta_mean_motion_ddot": 0,
        "tle_line1": "1 30289U 99025ZA  25344.76312109  .00007102  00000+0  29831-2 0  9998",
        "tle_line2": "2 30289  98.9265  81.2159 0037161 336.0842 175.4086 14.25794794970530"
      },
      "geometry": {
        "type": "Point",
        "coordinates": [
          83.0880689333589,
          -8.415731457509144
        ]
      }
    }
  ]
}